ELECTRON KICK STAGE R/B 
1 67223U 25305E   25354.25850977  .00016328  00000+0  16304-3 0  9993
2 67223  44.9975 310.0187 0179323 148.7450 212.4250 15.47983126   321
ELECTRON R/B            
1 67224U 25305F   25352.76890193  .00172783  86369-5  22935-3 0  9995
2 67224  45.0188 318.3021 0262888 280.1207  77.0133 15.64663678    93
